#aV2013  2  1  0  0  0.00000000     288 DD+AD WGS84 FIT  NGA
## 1725 432000.00000000   300.00000000 56324 0.0000000000000
+   31     1  2  3  4  5  6  7  8  9 10 11 12 13 14 15 16 17
+         18 19 20 21 22 23 24 25 26 28 29 30 31 32  0  0  0
+          0  0  0  0  0  0  0  0  0  0  0  0  0  0  0  0  0
+          0  0  0  0  0  0  0  0  0  0  0  0  0  0  0  0  0
+          0  0  0  0  0  0  0  0  0  0  0  0  0  0  0  0  0
++         2  2  2  2  2  2  2  2  2  2  2  2  2  2  2  2  2
++         2  2  2  2  2  2  2  2  2  2  2  2  2  2  2  0  0
++         0  0  0  0  0  0  0  0  0  0  0  0  0  0  0  0  0
++         0  0  0  0  0  0  0  0  0  0  0  0  0  0  0  0  0
++         0  0  0  0  0  0  0  0  0  0  0  0  0  0  0  0  0
%c cc cc ccc ccc cccc cccc cccc cccc ccccc ccccc ccccc ccccc
%c cc cc ccc ccc cccc cccc cccc cccc ccccc ccccc ccccc ccccc
%f  0.0000000  0.000000000  0.00000000000  0.000000000000000
%f  0.0000000  0.000000000  0.00000000000  0.000000000000000
%i    0    0    0    0      0      0      0      0         0
%i    0    0    0    0      0      0      0      0         0
/*      NGA, ST. LOUIS,MO.                                  
/*   EPHEMERIS COMPUTED FROM  1 DAYS OF DATA
/*   EPOCHA SMOOTHER  
/* CCCCCCCCCCCCCCCCCCCCCCCCCCCCCCCCCCCCCCCCCCCCCCCCCCCCCCCCC
*  2013  2  1 15 40  0.00000000                                                 
P  1  -2332.747966  16589.804240 -20616.937315    297.179001                    
V  1 -24503.234339   9172.169594  10230.757129      0.023881                    
P  2  21237.168280 -14270.853875   6203.128647    416.838193                    
V  2   8651.889613    321.135562 -30235.666904      0.013264                    
P  3  -9425.445006  20706.876113  13010.845797    162.684840                    
V  3  -3382.071472 -17465.391386  24639.335904      0.050983                    
P  4  25332.602875  -4887.440729  -7198.217197    122.004537                    
V  4  -6876.966952   6187.593668 -29267.042719      0.110189                    
P  5  10501.616561 -11403.889231  21538.125086   -381.623581                    
V  5  21773.950838  16738.720100  -1611.752825     -0.019062                    
P  6 -13600.303356  14907.436589  17189.871499    366.973701                    
V  6   -750.671112 -21943.755539  18879.029500     -0.141594                    
P  7  13948.614099   9502.981420  20621.865460    175.695670                    
V  7 -23913.426288  10152.789407  11242.535892      0.043811                    
P  8  22740.809088   2734.379238  14045.614369      4.409420                    
V  8 -16426.032789   5705.531960  25104.818673      0.002483                    
P  9  17727.532741 -16138.230715 -12014.707405    217.752612                    
V  9  13841.939526  -4143.631027  27179.132382      0.026101                    
P 10  22190.505521   4858.728202  13807.363855    -68.365863                    
V 10  12534.702547  12989.534913 -23799.735424     -0.012902                    
P 11  -6334.330814  21026.863726 -15181.127159   -349.296730                    
V 11 -16881.942780   9199.420700  20654.729117     -0.036811                    
P 12  -6165.015345 -19599.868017 -16962.341791    115.531061                    
V 12  17362.569254  12525.044469 -20610.370279      0.020555                    
P 13   5425.023280  21033.822794  15064.209809    148.066104                    
V 13  -5992.802896  18503.261336 -23569.700830     -0.029068                    
P 14 -14470.149481  -3106.637422 -21861.696404    220.144444                    
V 14   5539.966658 -27630.930523    122.375126      0.003048                    
P 15   4339.090578 -25964.369917   2247.719551   -106.975448                    
V 15   3288.618897   3266.299165  31330.334052     -0.012246                    
P 16 -11717.747856   9262.594003  21978.038427   -252.163104                    
V 16 -21207.935247 -18020.862625  -3391.007167     -0.002244                    
P 17  15063.530862    881.425475 -21644.289154     53.971628                    
V 17  -4411.530728  27621.638518  -2165.328557     -0.036871                    
P 18 -21032.459928 -16533.632802    346.788342    237.257486                    
V 18   2160.797890  -2824.496286  30774.032655      0.018696                    
P 19  -8613.708724  24492.321765   4355.667117   -344.930824                    
V 19  -1757.656361  -6230.827230  31403.297781     -0.032883                    
P 20   7673.861235  19887.430292 -16071.840212     82.351940                    
V 20 -17976.933447  -9424.547450 -20394.860487      0.015293                    
P 21 -18021.105015  -7608.997665  18732.565243   -278.081255                    
V 21  20339.576419  -9976.757922  15427.941026     -0.022930                    
P 22 -23027.824006  -7470.834954 -10891.224255    157.294762                    
V 22  -9134.176792 -11281.860181  26469.281355      0.011302                    
P 23    738.681711  25618.227735   6219.786641    118.128962                    
V 23  -4214.782921   7385.572826 -30580.880041     -0.037354                    
P 24   6293.484396 -17268.514426 -19165.009844     -0.320939                    
V 24  22942.180537  -8262.381297  15007.534644     -0.006480                    
P 25 -16482.689702 -19292.414329  -8026.823719     67.029125                    
V 25   9420.769722   4296.913390 -29720.874228      0.027852                    
P 26  12561.216635 -19548.488158  11896.335107   -117.140144                    
V 26  -1335.188393  16315.626647  27152.257966      0.139025                    
P 28  22204.650006  12138.253519  -7795.100322    228.771382                    
V 28   6783.795708   8418.738294  30000.451067      0.033054                    
P 29  -6529.115487 -21199.109067  14693.804462    403.699858                    
V 29   5179.261341 -17904.127891 -23576.324323      0.036697                    
P 30 -19759.731866   1950.503926  17279.371011   -236.616380                    
V 30 -18333.791489 -13396.447644 -19090.462564      0.097204                    
P 31 -25316.080532   8102.116234  -2439.345834    300.445578                    
V 31   2361.494203  -3009.800045 -31816.710373      0.017488                    
P 32   -872.794689  18072.515059 -19459.701249   -531.591668                    
V 32 -19155.848547 -15965.590958 -13352.420558     -0.034998                    
EOF
